STARLINK-1558           
1 46035U 20055J   23272.24876337  .00030102  00000+0  20321-2 0  9991
2 46035  53.0529 172.9432 0001490  65.1810 294.9333 15.06382237174380
STARLINK-1560           
1 46036U 20055K   23272.16766203 -.00002368  00000+0 -14009-3 0  9995
2 46036  53.0536 173.3058 0001242  85.7866 274.3265 15.06410839174377
STARLINK-1565           
1 46037U 20055L   23272.09762715  .00010675  00000+0  73500-3 0  9991
2 46037  53.0546 173.6208 0001302  79.3458 280.7678 15.06373101174359
STARLINK-1567           
1 46038U 20055M   23272.11237324 -.00008396  00000+0 -54522-3 0  9990
2 46038  53.0531 173.5551 0001344  83.9940 276.1202 15.06411758174350
STARLINK-1569           
1 46039U 20055N   23271.98705452 -.00000980  00000+0 -46973-4 0  9990
2 46039  53.0542 174.1163 0000763  99.1732 260.9343 15.06384221174330
STARLINK-1576           
1 46040U 20055P   23272.14925064  .00005858  00000+0  41195-3 0  9991
2 46040  53.0549 173.3863 0001434 107.4536 252.6610 15.06389020174324
STARLINK-1580           
1 46041U 20055Q   23272.09397443  .00014258  00000+0  97448-3 0  9996
2 46041  53.0547 173.7206 0001487  85.9706 274.1453 15.06386988174329
STARLINK-1581           
1 46042U 20055R   23272.13449690  .00028005  00000+0  18923-2 0  9999
2 46042  53.0545 173.4546 0001636  27.6405 332.4671 15.06384949174322
STARLINK-1582           
1 46043U 20055S   23271.92806270  .00026479  00000+0  17877-2 0  9997
2 46043  53.0534 174.3831 0000966 114.6186 245.4904 15.06445521173815
STARLINK-1584           
1 46044U 20055T   23272.14091619  .00007340  00000+0  51088-3 0  9995
2 46044  53.0554 173.4112 0001705  89.1092 271.0092 15.06419315174360
STARLINK-1591           
1 46045U 20055U   23271.88752785  .00016908  00000+0  11497-2 0  9993
2 46045  53.0548 174.5639 0001691 106.3307 253.7868 15.06449559174300
STARLINK-1524           
1 46047U 20055W   23271.90689275  .00006600  00000+0  46170-3 0  9996
2 46047  53.0546 164.4740 0001009  72.5863 287.5236 15.06386757173959
STARLINK-1527           
1 46048U 20055X   23272.10224972  .00025887  00000+0  17504-2 0  9995
2 46048  53.0537 163.6023 0001553  77.1255 282.9907 15.06400644174479
STARLINK-1530           
1 46049U 20055Y   23272.16491033  .00021218  00000+0  14396-2 0  9996
2 46049  53.0532 163.3170 0001601  93.1584 266.9588 15.06386186174518
STARLINK-1540           
1 46051U 20055AA  23271.93639018  .00001997  00000+0  15302-3 0  9991
2 46051  53.0554 164.3472 0001784 114.4010 245.7165 15.06379771174488
STARLINK-1541           
1 46052U 20055AB  23272.05433482  .00028418  00000+0  19199-2 0  9997
2 46052  53.0546 163.8171 0001383  73.1101 287.0040 15.06382396174463
STARLINK-1543           
1 46053U 20055AC  23272.12437745  .00003433  00000+0  24938-3 0  9990
2 46053  53.0544 163.5008 0001499  93.7189 266.3971 15.06379948174507
STARLINK-1548           
1 46054U 20055AD  23271.93269898  .00019375  00000+0  13165-2 0  9992
2 46054  53.0545 164.3617 0001030 107.7971 252.3131 15.06387603173936
STARLINK-1554           
1 46055U 20055AE  23272.11697600  .00025606  00000+0  17295-2 0  9992
2 46055  53.0541 163.5386 0001629  71.3401 288.7765 15.06446931174505
STARLINK-1561           
1 46056U 20055AF  23272.56638500  .00005156  00000+0  35465-4 0  9995
2 46056  53.0276  80.0187 0001063 125.5313 234.5806 15.76737031175719
STARLINK-1564           
1 46058U 20055AH  23271.88478505  .00024886  00000+0  16832-2 0  9994
2 46058  53.0531 164.5763 0001987  70.3272 289.7931 15.06410080173937
STARLINK-1570           
1 46059U 20055AJ  23272.22385750  .00002869  00000+0  21126-3 0  9993
2 46059  53.0531 163.0544 0001524  87.4633 272.6531 15.06432345174471
STARLINK-1572           
1 46060U 20055AK  23271.88844637  .00017066  00000+0  11602-2 0  9992
2 46060  53.0533 164.5600 0001252  90.6163 269.4969 15.06450918174437
STARLINK-1573           
1 46061U 20055AL  23272.11491562  .00000852  00000+0  73128-4 0  9993
2 46061  53.0552 163.2108 0001524  93.7068 266.4096 15.08007022174500
STARLINK-1574           
1 46062U 20055AM  23272.11330915  .00003957  00000+0  28444-3 0  9997
2 46062  53.0536 163.5519 0001684 105.7392 254.3782 15.06391611174464
STARLINK-1577           
1 46063U 20055AN  23272.17597282  .00028535  00000+0  19272-2 0  9993
2 46063  53.0545 163.2701 0001234  79.8166 280.2962 15.06393151174500
STARLINK-1583           
1 46064U 20055AP  23272.07643990 -.00011308  00000+0 -74145-3 0  9994
2 46064  53.0544 163.7159 0002042 103.1141 257.0075 15.06396421174492
STARLINK-1515           
1 46065U 20055AQ  23271.99083864 -.00010219  00000+0 -58560-4 0  9997
2 46065  53.0532 129.7238 0000871 124.8613 235.2488 15.76708080174943
STARLINK-1525           
1 46066U 20055AR  23272.00826257  .00011561  00000+0  79377-3 0  9999
2 46066  53.0538 144.0224 0001392 103.3182 256.7962 15.06398638174758
STARLINK-1529           
1 46067U 20055AS  23271.87830699  .00001703  00000+0  13321-3 0  9993
2 46067  53.0533 144.5951 0001203 108.0819 252.0301 15.06396279174740
STARLINK-1532           
1 46068U 20055AT  23271.91304435  .00017680  00000+0  12563-2 0  9990
2 46068  53.0539 144.6876 0001400  94.3548 265.7600 15.04773939174203
STARLINK-1533           
1 46069U 20055AU  23272.03775137  .00012446  00000+0  85295-3 0  9994
2 46069  53.0534 143.8905 0001362  91.0314 269.0831 15.06401488174779
STARLINK-1536           
1 46070U 20055AV  23271.98614960  .00005871  00000+0  41275-3 0  9999
2 46070  53.0537 144.1203 0001529  80.1721 279.9441 15.06395826174769
STARLINK-1538           
1 46071U 20055AW  23272.00457199  .00001613  00000+0  12716-3 0  9991
2 46071  53.0541 144.0378 0001411  91.7747 268.3404 15.06394829174766
STARLINK-1539           
1 46072U 20055AX  23272.09577973  .00000458  00000+0  49633-4 0  9999
2 46072  53.0540 143.6290 0001290  85.2055 274.9082 15.06381552174763
STARLINK-1542           
1 46073U 20055AY  23271.91242733  .00010937  00000+0  75200-3 0  9994
2 46073  53.0531 144.4486 0001456 103.6634 256.4517 15.06399287174214
STARLINK-1549           
1 46074U 20055AZ  23272.03037943  .00014313  00000+0  97801-3 0  9997
2 46074  53.0534 143.9230 0001114  91.4165 268.6951 15.06393248174750
STARLINK-1551           
1 46075U 20055BA  23271.92346965  .00014601  00000+0  99794-3 0  9995
2 46075  53.0538 144.4015 0001885  93.6434 266.4771 15.06368777174216
STARLINK-1552           
1 46076U 20055BB  23271.88293711 -.00000505  00000+0 -15054-4 0  9999
2 46076  53.0530 144.5877 0001106 110.8051 249.3056 15.06391603174725
STARLINK-1559           
1 46077U 20055BC  23272.06354786  .00019965  00000+0  13559-2 0  9995
2 46077  53.0542 143.7740 0001590  85.2714 274.8457 15.06386324174729
STARLINK-1563           
1 46078U 20055BD  23272.04143855  .00001474  00000+0  11783-3 0  9991
2 46078  53.0531 143.8727 0001220 101.5435 258.5691 15.06392138174736
STARLINK-1566           
1 46079U 20055BE  23272.03406433  .00007053  00000+0  49192-3 0  9999
2 46079  53.0539 143.9063 0001240 109.6917 250.4205 15.06397026174761
STARLINK-1568           
1 46080U 20055BF  23271.92622195  .00004014  00000+0  28826-3 0  9998
2 46080  53.0536 144.3801 0001392  87.7287 272.3862 15.06395812174728
STARLINK-1571           
1 46081U 20055BG  23272.09303390  .00006307  00000+0  44191-3 0  9991
2 46081  53.0532 143.6413 0001371  89.0719 271.0427 15.06403459174762
STARLINK-1578           
1 46082U 20055BH  23271.91610943  .00017075  00000+0  11626-2 0  9997
2 46082  53.0537 144.4316 0001402 103.4794 256.6351 15.06394071174212
STARLINK-1579           
1 46083U 20055BJ  23271.88662612  .00023602  00000+0  15984-2 0  9998
2 46083  53.0530 144.5688 0001176  91.5456 268.5667 15.06392606174202
STARLINK-1585           
1 46117U 20057A   23272.51689886  .00030281  00000+0  20391-2 0  9990
2 46117  53.0554 341.7411 0001990  54.6909 305.4266 15.06471559171879
STARLINK-1588           
1 46118U 20057B   23272.52612929  .00005986  00000+0  42048-3 0  9994
2 46118  53.0558   1.6962 0001723  87.9272 272.1915 15.06397130172877
STARLINK-1593           
1 46119U 20057C   23272.51412699  .00007125  00000+0  49689-3 0  9991
2 46119  53.0566   1.7391 0001662  93.9249 266.1930 15.06388625172258
STARLINK-1601           
1 46120U 20057D   23272.56667952  .00018269  00000+0  12424-2 0  9999
2 46120  53.0567   1.5153 0002187  76.7295 283.3938 15.06393012172882
STARLINK-1602           
1 46121U 20057E   23272.46899290  .00001201  00000+0  99517-4 0  9999
2 46121  53.0554 341.9545 0001475 102.6027 257.5127 15.06398280172533
STARLINK-1604           
1 46122U 20057F   23272.41186385 -.00000069  00000+0  14294-4 0  9990
2 46122  53.0542 322.2059 0001822 127.8831 232.2323 15.06393205173396
STARLINK-1605           
1 46123U 20057G   23272.52981530  .00011164  00000+0  76719-3 0  9994
2 46123  53.0538 321.6820 0001615  83.2887 276.8285 15.06399457173438
STARLINK-1614           
1 46124U 20057H   23272.53719264  .00006942  00000+0  48446-3 0  9993
2 46124  53.0536 321.6490 0001689  96.4292 263.6890 15.06402127172161
STARLINK-1618           
1 46125U 20057J   23272.51875502  .00023185  00000+0  15702-2 0  9996
2 46125  53.0563   1.7276 0001566 126.6910 233.4224 15.06401651172850
STARLINK-1619           
1 46126U 20057K   23272.55930380  .00034973  00000+0  23559-2 0  9993
2 46126  53.0567   1.5485 0001285 100.2343 259.8791 15.06388299171606
STARLINK-1621           
1 46127U 20057L   23272.48374151 -.00001358  00000+0 -72296-4 0  9991
2 46127  53.0561 341.8870 0001574 109.0068 251.1091 15.06391831171863
STARLINK-1622           
1 46128U 20057M   23272.37869105  .00002551  00000+0  19010-3 0  9996
2 46128  53.0538 322.3591 0001505  59.0178 301.0959 15.06394577172131
STARLINK-1623           
1 46129U 20057N   23272.55193048  .00011562  00000+0  79370-3 0  9990
2 46129  53.0540 321.5812 0001398  87.3049 272.8100 15.06404825172167
